GSAT0101 (PRN E11)      
1 37846U 11060A   22303.75329667 -.00000088  00000+0  00000+0 0  9996
2 37846  57.0397  17.6647 0000562 345.2157  14.8297  1.70474758 68527
GSAT0102 (PRN E12)      
1 37847U 11060B   22304.28043625 -.00000090  00000+0  00000+0 0  9996
2 37847  57.0408  17.6501 0002457 298.6347  71.7660  1.70475147 68548
GSAT0103 (PRN E19)      
1 38857U 12055A   22302.03260809  .00000074  00000+0  00000+0 0  9990
2 38857  55.1753 138.0254 0001875 233.7747 126.2766  1.70473620 62385
GSAT0104 (PRN E20)      
1 38858U 12055B   22302.00250788  .00000074  00000+0  00000+0 0  9993
2 38858  55.1751 138.0276 0001464 137.2999 222.7803  1.70473905 62389
GSAT0201 (PRN E18)      
1 40128U 14050A   22303.49801854 -.00000058  00000+0  00000+0 0  9996
2 40128  50.1900 326.8999 1617783 128.9519 246.6414  1.85519191 53720
GSAT0202 (PRN E14)      
1 40129U 14050B   22304.29753954 -.00000057  00000+0  00000+0 0  9992
2 40129  50.2126 325.9322 1615036 129.7928 245.6088  1.85519841 55904
GSAT0203 (PRN E26)      
1 40544U 15017A   22302.94642892 -.00000084  00000+0  00000+0 0  9995
2 40544  56.8351  17.7015 0004354 237.4828 122.5237  1.70475984 46599
GSAT0204 (PRN E22)      
1 40545U 15017B   22304.37263791 -.00000091  00000+0  00000+0 0  9990
2 40545  56.8412  17.6754 0004478 226.1428 133.8656  1.70475543  9663
GSAT0205 (PRN E24)      
1 40889U 15045A   22304.14010051 -.00000003  00000+0  00000+0 0  9999
2 40889  55.5415 258.2147 0004827   0.2710 359.7134  1.70472830 44424
GSAT0206 (PRN E30)      
1 40890U 15045B   22303.18767254  .00000002  00000+0  00000+0 0  9996
2 40890  55.5414 258.2368 0003489 340.7629  19.2069  1.70472849 44430
GSAT0209 (PRN E09)      
1 41174U 15079A   22303.36151497  .00000069  00000+0  00000+0 0  9998
2 41174  55.1927 137.6933 0001978 344.4067  15.6491  1.70474292 42179
GSAT0208 (PRN E08)      
1 41175U 15079B   22302.99443488  .00000070  00000+0  00000+0 0  9993
2 41175  55.1904 137.7018 0001481 358.1412   1.9214  1.70474127 42588
GSAT0211 (PRN E02)      
1 41549U 16030A   22302.52672318  .00000004  00000+0  00000+0 0  9998
2 41549  55.6875 258.2023 0004804 319.3808  40.5642  1.70472899 40058
GSAT0210 (PRN E01)      
1 41550U 16030B   22302.81929024  .00000004  00000+0  00000+0 0  9991
2 41550  55.6869 258.1957 0004169 295.3712  64.5676  1.70474494 40055
GSAT0207 (PRN E07)      
1 41859U 16069A   22303.65552347  .00000067  00000+0  00000+0 0  9997
2 41859  54.8537 137.8330 0001708 312.5193  47.5277  1.70472868 36808
GSAT0212 (PRN E03)      
1 41860U 16069B   22302.92235296  .00000069  00000+0  00000+0 0  9991
2 41860  54.8509 137.8508 0001718  26.9072 333.1654  1.70472855 37045
GSAT0213 (PRN E04)      
1 41861U 16069C   22303.87420189  .00000067  00000+0  00000+0 0  9992
2 41861  54.8537 137.8298 0001613 249.9920 110.0517  1.70472990 36922
GSAT0214 (PRN E05)      
1 41862U 16069D   22300.50188892  .00000082  00000+0  00000+0 0  9999
2 41862  54.8507 137.9177 0000691 247.4713 112.6012  1.70472964 36991
GSAT0215 (PRN E21)      
1 43055U 17079A   22302.16477469  .00000005  00000+0  00000+0 0  9997
2 43055  55.6638 258.0427 0003634 289.4272  70.5131  1.70473611 30369
GSAT0216 (PRN E25)      
1 43056U 17079B   22302.45690566  .00000005  00000+0  00000+0 0  9995
2 43056  55.6640 258.0344 0005316 287.8833  72.0394  1.70473715 30380
GSAT0217 (PRN E27)      
1 43057U 17079C   22302.09059179  .00000005  00000+0  00000+0 0  9995
2 43057  55.6624 258.0440 0004962 299.3968  60.5328  1.70473728 30364
GSAT0218 (PRN E31)      
1 43058U 17079D   22304.07039410 -.00000003  00000+0  00000+0 0  9991
2 43058  55.6610 257.9871 0005638 284.3198  75.6019  1.70473700 30427
GSAT0221 (PRN E15)      
1 43564U 18060A   22301.62286460 -.00000079  00000+0  00000+0 0  9994
2 43564  57.2163  17.5872 0004215 256.0767 103.9273  1.70476010 26541
GSAT0222 (PRN E33)      
1 43565U 18060B   22303.60248102 -.00000087  00000+0  00000+0 0  9995
2 43565  57.2189  17.5342 0003718 262.5374  97.4681  1.70475970 26617
GSAT0219 (PRN E36)      
1 43566U 18060C   22303.23643953 -.00000085  00000+0  00000+0 0  9996
2 43566  57.2194  17.5461 0003369 260.6494  99.3610  1.70476010 26585
GSAT0220 (PRN E13)      
1 43567U 18060D   22301.69690853 -.00000080  00000+0  00000+0 0  9991
2 43567  57.2186  17.5883 0003511 255.2822 104.7297  1.70475707 26549
GSAT0223                
1 49809U 21116A   22301.52640470 -.00000079  00000+0  00000+0 0  9992
2 49809  57.2109  17.4907 0003556 203.3044 142.1576  1.70475889  5548
GSAT0224                
1 49810U 21116B   22301.37387701 -.00000079  00000+0  00000+0 0  9992
2 49810  57.2115  17.4930 0002997 203.8896 160.4344  1.70475869  5578
